{"type": "FeatureCollection", "features": [ {"type": "Feature", "properties": {"norad_id": 30663, "name": "FENGYUN 1C DEB", "group": "fengyun-1c-debris", "lat": -28.749163116258458, "lon": 82.27688658784669, "alt_km": 1084.2941708846602, "timestamp": "2025-12-16T21:38:57.452463+00:00", "meta": {"OBJECT_NAME": "FENGYUN 1C DEB", "OBJECT_ID": "1999-025APV", "EPOCH": "2025-12-15T17:26:27.966048", "MEAN_MOTION": 13.23146941, "ECCENTRICITY": 0.06482933, "INCLINATION": 99.3031, "RA_OF_ASC_NODE": 266.3798, "ARG_OF_PERICENTER": 129.319, "MEAN_ANOMALY": 236.7267, "EPHEMERIS_TYPE": 0, "CLASSIFICATION_TYPE": "U", "NORAD_CAT_ID": 30663, "ELEMENT_SET_NO": 999, "REV_AT_EPOCH": 89087, "BSTAR": 0.001524294, "MEAN_MOTION_DOT": 1.958e-05, "MEAN_MOTION_DDOT": 0}, "tle": {"line1": "1 30663U 99025APV 25349.72671257  .00001958  00000+0  15243-2 0  9992", "line2": "2 30663  99.3031 266.3798 0648293 129.3190 236.7267 13.23146941890872"}}, "geometry": {"type": "Point", "coordinates": [82.27688658784669, -28.749163116258458]}}, {"type": "Feature", "properties": {"norad_id": 30665, "name": "FENGYUN 1C DEB", "group": "fengyun-1c-debris", "lat": -56.37683825967127, "lon": -23.26482883903119, "alt_km": 876.201098872114, "timestamp": "2025-12-16T21:38:57.452473+00:00", "meta": {"OBJECT_NAME": "FENGYUN 1C DEB", "OBJECT_ID": "1999-025APX", "EPOCH": "2025-12-15T10:48:46.345824", "MEAN_MOTION": 14.12357718, "ECCENTRICITY": 0.00676611, "INCLINATION": 99.2086, "RA_OF_ASC_NODE": 321.1247, "ARG_OF_PERICENTER": 194.7885, "MEAN_ANOMALY": 290.8628, "EPHEMERIS_TYPE": 0, "CLASSIFICATION_TYPE": "U", "NORAD_CAT_ID": 30665, "ELEMENT_SET_NO": 999, "REV_AT_EPOCH": 96008, "BSTAR": 0.0013602574, "MEAN_MOTION_DOT": 2.515e-05, "MEAN_MOTION_DDOT": 0}, "tle": {"line1": "1 30665U 99025APX 25349.45053641  .00002515  00000+0  13603-2 0  9993", "line2": "2 30665  99.2086 321.1247 0067661 194.7885 290.8628 14.12357718960081"}}, "geometry": {"type": "Point", "coordinates": [-23.26482883903119, -56.37683825967127]}}, {"type": "Feature", "properties": {"norad_id": 30666, "name": "FENGYUN 1C DEB", "group": "fengyun-1c-debris", "lat": -34.32919012289033, "lon": -19.52407909058618, "alt_km": 934.5158711467084, "timestamp": "2025-12-16T21:38:57.452483+00:00", "meta": {"OBJECT_NAME": "FENGYUN 1C DEB", "OBJECT_ID": "1999-025APY", "EPOCH": "2025-12-16T04:46:20.620992", "MEAN_MOTION": 14.02557635, "ECCENTRICITY": 0.00612904, "INCLINATION": 98.8221, "RA_OF_ASC_NODE": 333.707, "ARG_OF_PERICENTER": 134.558, "MEAN_ANOMALY": 242.2363, "EPHEMERIS_TYPE": 0, "CLASSIFICATION_TYPE": "U", "NORAD_CAT_ID": 30666, "ELEMENT_SET_NO": 999, "REV_AT_EPOCH": 96159, "BSTAR": 0.00021667302, "MEAN_MOTION_DOT": 2.97e-06, "MEAN_MOTION_DDOT": 0}, "tle": {"line1": "1 30666U 99025APY 25350.19884978  .00000297  00000+0  21667-3 0  9997", "line2": "2 30666  98.8221 333.7070 0061290 134.5580 242.2363 14.02557635961590"}}, "geometry": {"type": "Point", "coordinates": [-19.52407909058618, -34.32919012289033]}}, {"type": "Feature", "properties": {"norad_id": 30668, "name": "FENGYUN 1C DEB", "group": "fengyun-1c-debris", "lat": 33.106212267067676, "lon": 58.01608049699354, "alt_km": 902.6102376453109, "timestamp": "2025-12-16T21:38:57.452493+00:00", "meta": {"OBJECT_NAME": "FENGYUN 1C DEB", "OBJECT_ID": "1999-025AQA", "EPOCH": "2025-12-14T03:28:11.183232", "MEAN_MOTION": 14.1234121, "ECCENTRICITY": 0.00790226, "INCLINATION": 99.1297, "RA_OF_ASC_NODE": 61.2268, "ARG_OF_PERICENTER": 242.0168, "MEAN_ANOMALY": 178.7632, "EPHEMERIS_TYPE": 0, "CLASSIFICATION_TYPE": "U", "NORAD_CAT_ID": 30668, "ELEMENT_SET_NO": 999, "REV_AT_EPOCH": 96075, "BSTAR": 0.0022060072, "MEAN_MOTION_DOT": 4.14e-05, "MEAN_MOTION_DDOT": 0}, "tle": {"line1": "1 30668U 99025AQA 25348.14457388  .00004140  00000+0  22060-2 0  9990", "line2": "2 30668  99.1297  61.2268 0079022 242.0168 178.7632 14.12341210960750"}}, "geometry": {"type": "Point", "coordinates": [58.01608049699354, 33.106212267067676]}}, {"type": "Feature", "properties": {"norad_id": 30669, "name": "FENGYUN 1C DEB", "group": "fengyun-1c-debris", "lat": -52.996049002781305, "lon": -61.01202644407967, "alt_km": 957.7497730958639, "timestamp": "2025-12-16T21:38:57.452503+00:00", "meta": {"OBJECT_NAME": "FENGYUN 1C DEB", "OBJECT_ID": "1999-025AQB", "EPOCH": "2025-12-15T18:39:40.226688", "MEAN_MOTION": 14.02736421, "ECCENTRICITY": 0.01178858, "INCLINATION": 98.6336, "RA_OF_ASC_NODE": 286.2916, "ARG_OF_PERICENTER": 167.9872, "MEAN_ANOMALY": 221.9257, "EPHEMERIS_TYPE": 0, "CLASSIFICATION_TYPE": "U", "NORAD_CAT_ID": 30669, "ELEMENT_SET_NO": 999, "REV_AT_EPOCH": 95496, "BSTAR": 0.0010301136, "MEAN_MOTION_DOT": 1.652e-05, "MEAN_MOTION_DDOT": 0}, "tle": {"line1": "1 30669U 99025AQB 25349.77754892  .00001652  00000+0  10301-2 0  9991", "line2": "2 30669  98.6336 286.2916 0117885 167.9872 221.9257 14.02736421954966"}}, "geometry": {"type": "Point", "coordinates": [-61.01202644407967, -52.996049002781305]}}, {"type": "Feature", "properties": {"norad_id": 30670, "name": "FENGYUN 1C DEB", "group": "fengyun-1c-debris", "lat": 63.438208122076986, "lon": 17.379520411028576, "alt_km": 804.7726547811199, "timestamp": "2025-12-16T21:38:57.452517+00:00", "meta": {"OBJECT_NAME": "FENGYUN 1C DEB", "OBJECT_ID": "1999-025AQC", "EPOCH": "2025-12-16T01:17:39.820704", "MEAN_MOTION": 14.15818537, "ECCENTRICITY": 0.00398146, "INCLINATION": 98.7107, "RA_OF_ASC_NODE": 34.4088, "ARG_OF_PERICENTER": 60.3776, "MEAN_ANOMALY": 4.023, "EPHEMERIS_TYPE": 0, "CLASSIFICATION_TYPE": "U", "NORAD_CAT_ID": 30670, "ELEMENT_SET_NO": 999, "REV_AT_EPOCH": 97199, "BSTAR": 9.1081386e-05, "MEAN_MOTION_DOT": 1.37e-06, "MEAN_MOTION_DDOT": 0}, "tle": {"line1": "1 30670U 99025AQC 25350.05393311  .00000137  00000+0  91081-4 0  9994", "line2": "2 30670  98.7107  34.4088 0039814  60.3776   4.0230 14.15818537971998"}}, "geometry": {"type": "Point", "coordinates": [17.379520411028576, 63.438208122076986]}}, {"type": "Feature", "properties": {"norad_id": 30671, "name": "FENGYUN 1C DEB", "group": "fengyun-1c-debris", "lat": 79.59898492986656, "lon": -6.999821907577604, "alt_km": 860.0252836048885, "timestamp": "2025-12-16T21:38:57.452527+00:00", "meta": {"OBJECT_NAME": "FENGYUN 1C DEB", "OBJECT_ID": "1999-025AQD", "EPOCH": "2025-12-16T04:19:53.555808", "MEAN_MOTION": 13.95471633, "ECCENTRICITY": 0.01258606, "INCLINATION": 99.2522, "RA_OF_ASC_NODE": 54.9034, "ARG_OF_PERICENTER": 23.8645, "MEAN_ANOMALY": 37.0961, "EPHEMERIS_TYPE": 0, "CLASSIFICATION_TYPE": "U", "NORAD_CAT_ID": 30671, "ELEMENT_SET_NO": 999, "REV_AT_EPOCH": 95243, "BSTAR": 0.0009811726, "MEAN_MOTION_DOT": 1.378e-05, "MEAN_MOTION_DDOT": 0}, "tle": {"line1": "1 30671U 99025AQD 25350.18048097  .00001378  00000+0  98117-3 0  9991", "line2": "2 30671  99.2522  54.9034 0125860  23.8645  37.0961 13.95471633952434"}}, "geometry": {"type": "Point", "coordinates": [-6.999821907577604, 79.59898492986656]}}, {"type": "Feature", "properties": {"norad_id": 30673, "name": "FENGYUN 1C DEB", "group": "fengyun-1c-debris", "lat": 21.10956107497686, "lon": 36.50630476624116, "alt_km": 894.3220215874917, "timestamp": "2025-12-16T21:38:57.452537+00:00", "meta": {"OBJECT_NAME": "FENGYUN 1C DEB", "OBJECT_ID": "1999-025AQF", "EPOCH": "2025-12-16T02:51:23.786784", "MEAN_MOTION": 14.03457274, "ECCENTRICITY": 0.00527282, "INCLINATION": 98.9197, "RA_OF_ASC_NODE": 39.2145, "ARG_OF_PERICENTER": 133.284, "MEAN_ANOMALY": 254.7428, "EPHEMERIS_TYPE": 0, "CLASSIFICATION_TYPE": "U", "NORAD_CAT_ID": 30673, "ELEMENT_SET_NO": 999, "REV_AT_EPOCH": 96579, "BSTAR": 5.487191e-06, "MEAN_MOTION_DOT": -3.4e-07, "MEAN_MOTION_DDOT": 0}, "tle": {"line1": "1 30673U 99025AQF 25350.11902531 -.00000034  00000+0  54872-5 0  9999", "line2": "2 30673  98.9197  39.2145 0052728 133.2840 254.7428 14.03457274965798"}}, "geometry": {"type": "Point", "coordinates": [36.50630476624116, 21.10956107497686]}}, {"type": "Feature", "properties": {"norad_id": 30674, "name": "FENGYUN 1C DEB", "group": "fengyun-1c-debris", "lat": -64.57556754271941, "lon": 173.6311153411356, "alt_km": 567.63087851399, "timestamp": "2025-12-16T21:38:57.452548+00:00", "meta": {"OBJECT_NAME": "FENGYUN 1C DEB", "OBJECT_ID": "1999-025AQG", "EPOCH": "2025-12-15T21:52:05.980512", "MEAN_MOTION": 14.96174395, "ECCENTRICITY": 0.00258353, "INCLINATION": 98.9379, "RA_OF_ASC_NODE": 153.1667, "ARG_OF_PERICENTER": 293.1226, "MEAN_ANOMALY": 66.7269, "EPHEMERIS_TYPE": 0, "CLASSIFICATION_TYPE": "U", "NORAD_CAT_ID": 30674, "ELEMENT_SET_NO": 999, "REV_AT_EPOCH": 97399, "BSTAR": 0.0053261248, "MEAN_MOTION_DOT": 0.00060831, "MEAN_MOTION_DDOT": 0}, "tle": {"line1": "1 30674U 99025AQG 25349.91118033  .00060831  00000+0  53261-2 0  9990", "line2": "2 30674  98.9379 153.1667 0025835 293.1226  66.7269 14.96174395973996"}}, "geometry": {"type": "Point", "coordinates": [173.6311153411356, -64.57556754271941]}}, {"type": "Feature", "properties": {"norad_id": 30675, "name": "FENGYUN 1C DEB", "group": "fengyun-1c-debris", "lat": 54.359019243369914, "lon": 57.62364086099216, "alt_km": 802.8836768783231, "timestamp": "2025-12-16T21:38:57.452558+00:00", "meta": {"OBJECT_NAME": "FENGYUN 1C DEB", "OBJECT_ID": "1999-025AQH", "EPOCH": "2025-12-16T04:52:15.399264", "MEAN_MOTION": 14.27432405, "ECCENTRICITY": 0.00540508, "INCLINATION": 98.7545, "RA_OF_ASC_NODE": 69.334, "ARG_OF_PERICENTER": 159.2326, "MEAN_ANOMALY": 266.286, "EPHEMERIS_TYPE": 0, "CLASSIFICATION_TYPE": "U", "NORAD_CAT_ID": 30675, "ELEMENT_SET_NO": 999, "REV_AT_EPOCH": 96941, "BSTAR": 0.001141172, "MEAN_MOTION_DOT": 2.8e-05, "MEAN_MOTION_DDOT": 0}, "tle": {"line1": "1 30675U 99025AQH 25350.20295601  .00002800  00000+0  11412-2 0  9996", "line2": "2 30675  98.7545  69.3340 0054050 159.2326 266.2860 14.27432405969419"}}, "geometry": {"type": "Point", "coordinates": [57.62364086099216, 54.359019243369914]}}]}